ONEWEB-0628             
1 55169U 23004AF  26200.80579237 -.00000794  00000+0 -22424-2 0  9993
2 55169  87.8975 344.1686 0001346  82.6838 277.4444 13.12440844172310
ONEWEB-0629             
1 55170U 23004AG  26200.69011329  .00000094  00000+0  21003-3 0  9999
2 55170  87.9150 359.4040 0001545  94.1793 265.9515 13.17650662171866
ONEWEB-0631             
1 55171U 23004AH  26200.80425750 -.00000040  00000+0 -13370-3 0  9991
2 55171  87.9204 328.9507 0002246  89.7590 270.3799 13.18687096173970
ONEWEB-0709             
1 55172U 23004AJ  26200.85937187  .00000597  00000+0  16479-2 0  9996
2 55172  87.8886  14.5721 0002719  96.0984 264.0454 13.11416736170154
ONEWEB-0710             
1 55173U 23004AK  26200.85633400  .00000003  00000+0 -26525-4 0  9996
2 55173  87.9150 359.3665 0001862  88.2802 271.8543 13.17648343171880
ONEWEB-0711             
1 55174U 23004AL  26200.75423892 -.00000253  00000+0 -74831-3 0  9998
2 55174  87.8891  14.5816 0001732  68.0284 292.1028 13.11418717170108
ONEWEB-0713             
1 55175U 23004AM  26200.77290396  .00000428  00000+0  11715-2 0  9995
2 55175  87.8891  14.5797 0001757  78.7753 281.3572 13.11417901170099
ONEWEB-0715             
1 55176U 23004AN  26200.76781620  .00000368  00000+0  10037-2 0  9999
2 55176  87.8890  14.5811 0002524  87.7451 272.3966 13.11417941170130
ONEWEB-0716             
1 55177U 23004AP  26200.84958333 -.00000006  00000+0 -48729-4 0  9998
2 55177  87.9150 359.3706 0001823 100.9263 259.2074 13.17648482171883
ONEWEB-0717             
1 55178U 23004AQ  26200.83270347 -.00000164  00000+0 -45583-3 0  9999
2 55178  87.9163 359.3649 0001978  77.1015 283.0338 13.17648216171934
ONEWEB-0719             
1 55179U 23004AR  26200.84282263  .00000028  00000+0  39224-4 0  9994
2 55179  87.9160 359.3428 0001712  98.1368 261.9957 13.17647866171883
ONEWEB-0530             
1 55796U 23029A   26200.74109815 -.00000124  00000+0 -33664-3 0  9996
2 55796  87.9172 267.9791 0001742  88.0073 272.1259 13.20770955165446
ONEWEB-0534             
1 55797U 23029B   26200.72930633 -.00000008  00000+0 -50979-4 0  9995
2 55797  87.9174 267.9824 0002046 100.1963 259.9401 13.20769853165445
ONEWEB-0556             
1 55798U 23029C   26200.73605473  .00000023  00000+0  25188-4 0  9997
2 55798  87.9171 267.9797 0001421 117.5553 242.5725 13.20770640165448
ONEWEB-0562             
1 55799U 23029D   26200.72258028 -.00000096  00000+0 -26781-3 0  9998
2 55799  87.9168 267.9636 0001234  89.3210 270.8065 13.20772459165446
ONEWEB-0563             
1 55800U 23029E   26200.71753262 -.00000025  00000+0 -92605-4 0  9991
2 55800  87.9173 267.9946 0002112 102.9629 257.1740 13.20769643165439
