{"fetched_at":"2026-07-20T07:40:22.620Z","source":"https://celestrak.org/NORAD/elements/gp.php?GROUP=oneweb&FORMAT=JSON","constellation":"oneweb","records":[{"OBJECT_NAME":"ONEWEB-0628","OBJECT_ID":"2023-004AF","EPOCH":"2026-07-19T19:20:20.460768","CLASSIFICATION_TYPE":"U","MEAN_MOTION":13.12440844,"ECCENTRICITY":0.0001346,"INCLINATION":87.8975,"RA_OF_ASC_NODE":344.1686,"ARG_OF_PERICENTER":82.6838,"MEAN_ANOMALY":277.4444,"EPHEMERIS_TYPE":0,"NORAD_CAT_ID":55169,"ELEMENT_SET_NO":999,"REV_AT_EPOCH":17231,"BSTAR":-0.0022424,"MEAN_MOTION_DOT":-0.00000794,"MEAN_MOTION_DDOT":0},{"OBJECT_NAME":"ONEWEB-0629","OBJECT_ID":"2023-004AG","EPOCH":"2026-07-19T16:33:45.788256","CLASSIFICATION_TYPE":"U","MEAN_MOTION":13.17650662,"ECCENTRICITY":0.0001545,"INCLINATION":87.915,"RA_OF_ASC_NODE":359.404,"ARG_OF_PERICENTER":94.1793,"MEAN_ANOMALY":265.9515,"EPHEMERIS_TYPE":0,"NORAD_CAT_ID":55170,"ELEMENT_SET_NO":999,"REV_AT_EPOCH":17186,"BSTAR":0.00021003,"MEAN_MOTION_DOT":9.4e-7,"MEAN_MOTION_DDOT":0},{"OBJECT_NAME":"ONEWEB-0631","OBJECT_ID":"2023-004AH","EPOCH":"2026-07-19T19:18:07.848000","CLASSIFICATION_TYPE":"U","MEAN_MOTION":13.18687096,"ECCENTRICITY":0.0002246,"INCLINATION":87.9204,"RA_OF_ASC_NODE":328.9507,"ARG_OF_PERICENTER":89.759,"MEAN_ANOMALY":270.3799,"EPHEMERIS_TYPE":0,"NORAD_CAT_ID":55171,"ELEMENT_SET_NO":999,"REV_AT_EPOCH":17397,"BSTAR":-0.0001337,"MEAN_MOTION_DOT":-4e-7,"MEAN_MOTION_DDOT":0},{"OBJECT_NAME":"ONEWEB-0709","OBJECT_ID":"2023-004AJ","EPOCH":"2026-07-19T20:37:29.729568","CLASSIFICATION_TYPE":"U","MEAN_MOTION":13.11416736,"ECCENTRICITY":0.0002719,"INCLINATION":87.8886,"RA_OF_ASC_NODE":14.5721,"ARG_OF_PERICENTER":96.0984,"MEAN_ANOMALY":264.0454,"EPHEMERIS_TYPE":0,"NORAD_CAT_ID":55172,"ELEMENT_SET_NO":999,"REV_AT_EPOCH":17015,"BSTAR":0.0016479,"MEAN_MOTION_DOT":0.00000597,"MEAN_MOTION_DDOT":0},{"OBJECT_NAME":"ONEWEB-0710","OBJECT_ID":"2023-004AK","EPOCH":"2026-07-19T20:33:07.257600","CLASSIFICATION_TYPE":"U","MEAN_MOTION":13.17648343,"ECCENTRICITY":0.0001862,"INCLINATION":87.915,"RA_OF_ASC_NODE":359.3665,"ARG_OF_PERICENTER":88.2802,"MEAN_ANOMALY":271.8543,"EPHEMERIS_TYPE":0,"NORAD_CAT_ID":55173,"ELEMENT_SET_NO":999,"REV_AT_EPOCH":17188,"BSTAR":-0.000026525,"MEAN_MOTION_DOT":3e-8,"MEAN_MOTION_DDOT":0},{"OBJECT_NAME":"ONEWEB-0711","OBJECT_ID":"2023-004AL","EPOCH":"2026-07-19T18:06:06.242688","CLASSIFICATION_TYPE":"U","MEAN_MOTION":13.11418717,"ECCENTRICITY":0.0001732,"INCLINATION":87.8891,"RA_OF_ASC_NODE":14.5816,"ARG_OF_PERICENTER":68.0284,"MEAN_ANOMALY":292.1028,"EPHEMERIS_TYPE":0,"NORAD_CAT_ID":55174,"ELEMENT_SET_NO":999,"REV_AT_EPOCH":17010,"BSTAR":-0.00074831,"MEAN_MOTION_DOT":-0.00000253,"MEAN_MOTION_DDOT":0},{"OBJECT_NAME":"ONEWEB-0713","OBJECT_ID":"2023-004AM","EPOCH":"2026-07-19T18:32:58.902144","CLASSIFICATION_TYPE":"U","MEAN_MOTION":13.11417901,"ECCENTRICITY":0.0001757,"INCLINATION":87.8891,"RA_OF_ASC_NODE":14.5797,"ARG_OF_PERICENTER":78.7753,"MEAN_ANOMALY":281.3572,"EPHEMERIS_TYPE":0,"NORAD_CAT_ID":55175,"ELEMENT_SET_NO":999,"REV_AT_EPOCH":17009,"BSTAR":0.0011715,"MEAN_MOTION_DOT":0.00000428,"MEAN_MOTION_DDOT":0},{"OBJECT_NAME":"ONEWEB-0715","OBJECT_ID":"2023-004AN","EPOCH":"2026-07-19T18:25:39.319680","CLASSIFICATION_TYPE":"U","MEAN_MOTION":13.11417941,"ECCENTRICITY":0.0002524,"INCLINATION":87.889,"RA_OF_ASC_NODE":14.5811,"ARG_OF_PERICENTER":87.7451,"MEAN_ANOMALY":272.3966,"EPHEMERIS_TYPE":0,"NORAD_CAT_ID":55176,"ELEMENT_SET_NO":999,"REV_AT_EPOCH":17013,"BSTAR":0.0010037,"MEAN_MOTION_DOT":0.00000368,"MEAN_MOTION_DDOT":0},{"OBJECT_NAME":"ONEWEB-0716","OBJECT_ID":"2023-004AP","EPOCH":"2026-07-19T20:23:23.999712","CLASSIFICATION_TYPE":"U","MEAN_MOTION":13.17648482,"ECCENTRICITY":0.0001823,"INCLINATION":87.915,"RA_OF_ASC_NODE":359.3706,"ARG_OF_PERICENTER":100.9263,"MEAN_ANOMALY":259.2074,"EPHEMERIS_TYPE":0,"NORAD_CAT_ID":55177,"ELEMENT_SET_NO":999,"REV_AT_EPOCH":17188,"BSTAR":-0.000048729,"MEAN_MOTION_DOT":-6e-8,"MEAN_MOTION_DDOT":0},{"OBJECT_NAME":"ONEWEB-0717","OBJECT_ID":"2023-004AQ","EPOCH":"2026-07-19T19:59:05.579808","CLASSIFICATION_TYPE":"U","MEAN_MOTION":13.17648216,"ECCENTRICITY":0.0001978,"INCLINATION":87.9163,"RA_OF_ASC_NODE":359.3649,"ARG_OF_PERICENTER":77.1015,"MEAN_ANOMALY":283.0338,"EPHEMERIS_TYPE":0,"NORAD_CAT_ID":55178,"ELEMENT_SET_NO":999,"REV_AT_EPOCH":17193,"BSTAR":-0.00045583,"MEAN_MOTION_DOT":-0.00000164,"MEAN_MOTION_DDOT":0},{"OBJECT_NAME":"ONEWEB-0719","OBJECT_ID":"2023-004AR","EPOCH":"2026-07-19T20:13:39.875232","CLASSIFICATION_TYPE":"U","MEAN_MOTION":13.17647866,"ECCENTRICITY":0.0001712,"INCLINATION":87.916,"RA_OF_ASC_NODE":359.3428,"ARG_OF_PERICENTER":98.1368,"MEAN_ANOMALY":261.9957,"EPHEMERIS_TYPE":0,"NORAD_CAT_ID":55179,"ELEMENT_SET_NO":999,"REV_AT_EPOCH":17188,"BSTAR":0.000039224,"MEAN_MOTION_DOT":2.8e-7,"MEAN_MOTION_DDOT":0},{"OBJECT_NAME":"ONEWEB-0530","OBJECT_ID":"2023-029A","EPOCH":"2026-07-19T17:47:10.880160","CLASSIFICATION_TYPE":"U","MEAN_MOTION":13.20770955,"ECCENTRICITY":0.0001742,"INCLINATION":87.9172,"RA_OF_ASC_NODE":267.9791,"ARG_OF_PERICENTER":88.0073,"MEAN_ANOMALY":272.1259,"EPHEMERIS_TYPE":0,"NORAD_CAT_ID":55796,"ELEMENT_SET_NO":999,"REV_AT_EPOCH":16544,"BSTAR":-0.00033664,"MEAN_MOTION_DOT":-0.00000124,"MEAN_MOTION_DDOT":0},{"OBJECT_NAME":"ONEWEB-0534","OBJECT_ID":"2023-029B","EPOCH":"2026-07-19T17:30:12.066912","CLASSIFICATION_TYPE":"U","MEAN_MOTION":13.20769853,"ECCENTRICITY":0.0002046,"INCLINATION":87.9174,"RA_OF_ASC_NODE":267.9824,"ARG_OF_PERICENTER":100.1963,"MEAN_ANOMALY":259.9401,"EPHEMERIS_TYPE":0,"NORAD_CAT_ID":55797,"ELEMENT_SET_NO":999,"REV_AT_EPOCH":16544,"BSTAR":-0.000050979,"MEAN_MOTION_DOT":-8e-8,"MEAN_MOTION_DDOT":0},{"OBJECT_NAME":"ONEWEB-0556","OBJECT_ID":"2023-029C","EPOCH":"2026-07-19T17:39:55.128672","CLASSIFICATION_TYPE":"U","MEAN_MOTION":13.2077064,"ECCENTRICITY":0.0001421,"INCLINATION":87.9171,"RA_OF_ASC_NODE":267.9797,"ARG_OF_PERICENTER":117.5553,"MEAN_ANOMALY":242.5725,"EPHEMERIS_TYPE":0,"NORAD_CAT_ID":55798,"ELEMENT_SET_NO":999,"REV_AT_EPOCH":16544,"BSTAR":0.000025188,"MEAN_MOTION_DOT":2.3e-7,"MEAN_MOTION_DDOT":0},{"OBJECT_NAME":"ONEWEB-0562","OBJECT_ID":"2023-029D","EPOCH":"2026-07-19T17:20:30.936192","CLASSIFICATION_TYPE":"U","MEAN_MOTION":13.20772459,"ECCENTRICITY":0.0001234,"INCLINATION":87.9168,"RA_OF_ASC_NODE":267.9636,"ARG_OF_PERICENTER":89.321,"MEAN_ANOMALY":270.8065,"EPHEMERIS_TYPE":0,"NORAD_CAT_ID":55799,"ELEMENT_SET_NO":999,"REV_AT_EPOCH":16544,"BSTAR":-0.00026781,"MEAN_MOTION_DOT":-9.6e-7,"MEAN_MOTION_DDOT":0},{"OBJECT_NAME":"ONEWEB-0563","OBJECT_ID":"2023-029E","EPOCH":"2026-07-19T17:13:14.818368","CLASSIFICATION_TYPE":"U","MEAN_MOTION":13.20769643,"ECCENTRICITY":0.0002112,"INCLINATION":87.9173,"RA_OF_ASC_NODE":267.9946,"ARG_OF_PERICENTER":102.9629,"MEAN_ANOMALY":257.174,"EPHEMERIS_TYPE":0,"NORAD_CAT_ID":55800,"ELEMENT_SET_NO":999,"REV_AT_EPOCH":16543,"BSTAR":-0.000092605,"MEAN_MOTION_DOT":-2.5e-7,"MEAN_MOTION_DDOT":0}]}
